*******************************************************************************
Ephemeris / WWW_USER Mon Mar 24 11:49:20 2025 Pasadena, USA      / Horizons    
*******************************************************************************
Target body name: (2019 AS11)                     {source: JPL#3}
Center body name: Earth (399)                     {source: DE441}
Center-site name: Gemini South Obs., Cerro Pachon
*******************************************************************************
Start time      : A.D. 2018-Aug-09 22:23:00.0000 UT      
Stop  time      : A.D. 2018-Aug-10 11:13:00.0000 UT      
Step-size       : 1 minutes
*******************************************************************************
Target pole/equ : undefined
Target radii    : undefined                                                    
Center geodetic : 289.2634, -30.2406227, 2.71233  {E-lon(deg),Lat(deg),Alt(km)}
Center cylindric: 289.2634,5517.21435,-3194.81213 {E-lon(deg),Dxy(km),Dz(km)}
Center pole/equ : ITRF93                          {East-longitude positive}
Center radii    : 6378.137, 6378.137, 6356.752 km {Equator_a, b, pole_c}       
Target primary  : Sun
Vis. interferer : MOON (R_eq= 1737.400) km        {source: DE441}
Rel. light bend : Sun                             {source: DE441}
Rel. lght bnd GM: 1.3271E+11 km^3/s^2                                          
Small-body perts: Yes                             {source: SB441-N16}
Atmos refraction: NO (AIRLESS)
RA format       : HMS
Time format     : CAL 
Calendar mode   : Mixed Julian/Gregorian
RTS-only print  : NO       
EOP file        : eop.250321.p250617                                           
EOP coverage    : DATA-BASED 1962-JAN-20 TO 2025-MAR-21. PREDICTS-> 2025-JUN-16
Units conversion: 1 au= 149597870.700 km, c= 299792.458 km/s, 1 day= 86400.0 s 
Table cut-offs 1: Elevation (-90.0deg=NO ),Airmass (>38.000=NO), Daylight (YES)
Table cut-offs 2: Solar elongation (  0.0,180.0=NO ),Local Hour Angle( 0.0=NO )
Table cut-offs 3: RA/DEC angular rate (     0.0=NO )                           
*******************************************************************************
Initial IAU76/J2000 heliocentric ecliptic osculating elements (au, days, deg.):
  EPOCH=  2458497.5 ! 2019-Jan-14.00 (TDB)         Residual RMS= .087899       
   EC= .1148313279028816   QR= .9946661968961306   TP= 2458526.093433633       
   OM= 299.8828960483019   W=  203.050931799211    IN= 7.281527766683049       
  Equivalent ICRF heliocentric cartesian coordinates (au, au/d):
   X=-3.982431103506237E-01  Y= 8.438985356712057E-01  Z= 3.820551439764541E-01
  VX=-1.601846206933958E-02 VY=-6.309373484980013E-03 VZ=-5.215303828559489E-03
Asteroid physical parameters (km, seconds, rotational period in hours):        
   GM= n.a.                RAD= n.a.               ROTPER= n.a.                
   H= 26.8                 G= .150                 B-V= n.a.                   
                           ALBEDO= n.a.            STYP= n.a.                  
*******************************************************************************
 Date__(UT)__HR:MN     R.A._________(ICRF)_________DEC
******************************************************
$$SOE
 2018-Aug-10 10:41 Nm  02 07 43.567549 +24 40 05.85441
 2018-Aug-10 10:42 Nm  02 07 43.657410 +24 40 06.92280
 2018-Aug-10 10:43 Nm  02 07 43.747275 +24 40 07.99110
 2018-Aug-10 10:44 Nm  02 07 43.837146 +24 40 09.05929
 2018-Aug-10 10:45 Nm  02 07 43.927022 +24 40 10.12738
 2018-Aug-10 10:46 Nm  02 07 44.016904 +24 40 11.19537
 2018-Aug-10 10:47 Nm  02 07 44.106792 +24 40 12.26326
 2018-Aug-10 10:48 Nm  02 07 44.196685 +24 40 13.33105
 2018-Aug-10 10:49 Nm  02 07 44.286583 +24 40 14.39874
 2018-Aug-10 10:50 Nm  02 07 44.376488 +24 40 15.46633
 2018-Aug-10 10:51 Nm  02 07 44.466399 +24 40 16.53382
 2018-Aug-10 10:52 Nm  02 07 44.556315 +24 40 17.60121
 2018-Aug-10 10:53 Nm  02 07 44.646237 +24 40 18.66850
 2018-Aug-10 10:54 Nm  02 07 44.736166 +24 40 19.73569
 2018-Aug-10 10:55 Nm  02 07 44.826101 +24 40 20.80278
 2018-Aug-10 10:56 Nm  02 07 44.916042 +24 40 21.86978
 2018-Aug-10 10:57 Cm  02 07 45.005989 +24 40 22.93667
 2018-Aug-10 10:58 Cm  02 07 45.095943 +24 40 24.00347
 2018-Aug-10 10:59 Cm  02 07 45.185903 +24 40 25.07016
 2018-Aug-10 11:00 Cm  02 07 45.275870 +24 40 26.13676
 2018-Aug-10 11:01 Cm  02 07 45.365843 +24 40 27.20326
 2018-Aug-10 11:02 Cm  02 07 45.455823 +24 40 28.26967
 2018-Aug-10 11:03 Cm  02 07 45.545810 +24 40 29.33597
 2018-Aug-10 11:04 Cm  02 07 45.635804 +24 40 30.40218
 2018-Aug-10 11:05 Cm  02 07 45.725805 +24 40 31.46829
 2018-Aug-10 11:06 Cm  02 07 45.815813 +24 40 32.53430
 2018-Aug-10 11:07 Cm  02 07 45.905828 +24 40 33.60021
 2018-Aug-10 11:08 Cm  02 07 45.995850 +24 40 34.66603
 2018-Aug-10 11:09 Cm  02 07 46.085879 +24 40 35.73175
 2018-Aug-10 11:10 Cm  02 07 46.175916 +24 40 36.79737
 2018-Aug-10 11:11 Cm  02 07 46.265960 +24 40 37.86290
 2018-Aug-10 11:12 Cm  02 07 46.356012 +24 40 38.92833
 2018-Aug-10 11:13 Cm  02 07 46.446071 +24 40 39.99367
